CCSDS_OMM_VERS = 2.0
CREATION_DATE  = 
ORIGINATOR     = 

OBJECT_NAME    = UNKNOWN
OBJECT_ID      = 
CENTER_NAME    = EARTH
REF_FRAME      = TEME
TIME_SYSTEM    = UTC
MEAN_ELEMENT_THEORY = SGP/SGP4

EPOCH          = 2026-01-26T15:44:34.855008
MEAN_MOTION    = 12.92696009
ECCENTRICITY   = .00278855
INCLINATION    = 90.2454
RA_OF_ASC_NODE = 3.8438
ARG_OF_PERICENTER = 302.8873
MEAN_ANOMALY   = 56.9562

EPHEMERIS_TYPE = 0
CLASSIFICATION_TYPE = U
NORAD_CAT_ID   = 270306
ELEMENT_SET_NO = 999
REV_AT_EPOCH   = 24633
BSTAR          = .4228133E-3
MEAN_MOTION_DOT = .122E-5
MEAN_MOTION_DDOT = 0

CCSDS_OMM_VERS = 2.0
CREATION_DATE  = 
ORIGINATOR     = 

OBJECT_NAME    = UNKNOWN
OBJECT_ID      = 
CENTER_NAME    = EARTH
REF_FRAME      = TEME
TIME_SYSTEM    = UTC
MEAN_ELEMENT_THEORY = SGP/SGP4

EPOCH          = 2026-01-28T16:04:55.095168
MEAN_MOTION    = 13.66323953
ECCENTRICITY   = .0079499
INCLINATION    = 82.7030
RA_OF_ASC_NODE = 184.2986
ARG_OF_PERICENTER = 160.3509
MEAN_ANOMALY   = 200.0736

EPHEMERIS_TYPE = 0
CLASSIFICATION_TYPE = U
NORAD_CAT_ID   = 270307
ELEMENT_SET_NO = 999
REV_AT_EPOCH   = 28331
BSTAR          = .19468693E-1
MEAN_MOTION_DOT = .16481E-3
MEAN_MOTION_DDOT = 0

CCSDS_OMM_VERS = 2.0
CREATION_DATE  = 
ORIGINATOR     = 

OBJECT_NAME    = UNKNOWN
OBJECT_ID      = 
CENTER_NAME    = EARTH
REF_FRAME      = TEME
TIME_SYSTEM    = UTC
MEAN_ELEMENT_THEORY = SGP/SGP4

EPOCH          = 2026-01-28T02:40:15.365280
MEAN_MOTION    = 12.99323537
ECCENTRICITY   = .0204653
INCLINATION    = 82.5698
RA_OF_ASC_NODE = 307.6255
ARG_OF_PERICENTER = 144.3122
MEAN_ANOMALY   = 217.1873

EPHEMERIS_TYPE = 0
CLASSIFICATION_TYPE = U
NORAD_CAT_ID   = 270308
ELEMENT_SET_NO = 999
REV_AT_EPOCH   = 27898
BSTAR          = .11718145E-1
MEAN_MOTION_DOT = .3862E-4
MEAN_MOTION_DDOT = 0

CCSDS_OMM_VERS = 2.0
CREATION_DATE  = 
ORIGINATOR     = 

OBJECT_NAME    = UNKNOWN
OBJECT_ID      = 
CENTER_NAME    = EARTH
REF_FRAME      = TEME
TIME_SYSTEM    = UTC
MEAN_ELEMENT_THEORY = SGP/SGP4

EPOCH          = 2026-01-28T22:27:54.854784
MEAN_MOTION    = 14.93508864
ECCENTRICITY   = .00367641
INCLINATION    = 98.3938
RA_OF_ASC_NODE = 14.3429
ARG_OF_PERICENTER = 153.7310
MEAN_ANOMALY   = 206.5782

EPHEMERIS_TYPE = 0
CLASSIFICATION_TYPE = U
NORAD_CAT_ID   = 270309
ELEMENT_SET_NO = 999
REV_AT_EPOCH   = 27488
BSTAR          = .76562212E-3
MEAN_MOTION_DOT = .8107E-4
MEAN_MOTION_DDOT = 0

CCSDS_OMM_VERS = 2.0
CREATION_DATE  = 
ORIGINATOR     = 

OBJECT_NAME    = UNKNOWN
OBJECT_ID      = 
CENTER_NAME    = EARTH
REF_FRAME      = TEME
TIME_SYSTEM    = UTC
MEAN_ELEMENT_THEORY = SGP/SGP4

EPOCH          = 2026-01-17T10:36:26.468064
MEAN_MOTION    = 13.48393398
ECCENTRICITY   = .01910872
INCLINATION    = 82.9399
RA_OF_ASC_NODE = 274.2433
ARG_OF_PERICENTER = 147.6450
MEAN_ANOMALY   = 213.6582

EPHEMERIS_TYPE = 0
CLASSIFICATION_TYPE = U
NORAD_CAT_ID   = 270310
ELEMENT_SET_NO = 999
REV_AT_EPOCH   = 23629
BSTAR          = .11849104E-2
MEAN_MOTION_DOT = .837E-5
MEAN_MOTION_DDOT = 0

CCSDS_OMM_VERS = 2.0
CREATION_DATE  = 
ORIGINATOR     = 

OBJECT_NAME    = UNKNOWN
OBJECT_ID      = 
CENTER_NAME    = EARTH
REF_FRAME      = TEME
TIME_SYSTEM    = UTC
MEAN_ELEMENT_THEORY = SGP/SGP4

EPOCH          = 2026-01-27T05:27:27.393696
MEAN_MOTION    = 14.51956245
ECCENTRICITY   = .00221425
INCLINATION    = 98.8054
RA_OF_ASC_NODE = 19.5605
ARG_OF_PERICENTER = 35.9824
MEAN_ANOMALY   = 324.2855

EPHEMERIS_TYPE = 0
CLASSIFICATION_TYPE = U
NORAD_CAT_ID   = 270311
ELEMENT_SET_NO = 999
REV_AT_EPOCH   = 25256
BSTAR          = .38398791E-2
MEAN_MOTION_DOT = .15531E-3
MEAN_MOTION_DDOT = 0

CCSDS_OMM_VERS = 2.0
CREATION_DATE  = 
ORIGINATOR     = 

OBJECT_NAME    = UNKNOWN
OBJECT_ID      = 
CENTER_NAME    = EARTH
REF_FRAME      = TEME
TIME_SYSTEM    = UTC
MEAN_ELEMENT_THEORY = SGP/SGP4

EPOCH          = 2026-01-18T17:23:00.753792
MEAN_MOTION    = 14.18274319
ECCENTRICITY   = .00300356
INCLINATION    = 98.4487
RA_OF_ASC_NODE = 23.5774
ARG_OF_PERICENTER = 29.0360
MEAN_ANOMALY   = 331.2480

EPHEMERIS_TYPE = 0
CLASSIFICATION_TYPE = U
NORAD_CAT_ID   = 270312
ELEMENT_SET_NO = 999
REV_AT_EPOCH   = 31788
BSTAR          = .24140746E-3
MEAN_MOTION_DOT = .458E-5
MEAN_MOTION_DDOT = 0

CCSDS_OMM_VERS = 2.0
CREATION_DATE  = 
ORIGINATOR     = 

OBJECT_NAME    = UNKNOWN
OBJECT_ID      = 
CENTER_NAME    = EARTH
REF_FRAME      = TEME
TIME_SYSTEM    = UTC
MEAN_ELEMENT_THEORY = SGP/SGP4

EPOCH          = 2026-01-28T04:19:08.254560
MEAN_MOTION    = 12.95206461
ECCENTRICITY   = .00250997
INCLINATION    = 90.2475
RA_OF_ASC_NODE = 8.0261
ARG_OF_PERICENTER = 211.2574
MEAN_ANOMALY   = 148.7054

EPHEMERIS_TYPE = 0
CLASSIFICATION_TYPE = U
NORAD_CAT_ID   = 270313
ELEMENT_SET_NO = 999
REV_AT_EPOCH   = 28694
BSTAR          = .13354585E-2
MEAN_MOTION_DOT = .383E-5
MEAN_MOTION_DDOT = 0

CCSDS_OMM_VERS = 2.0
CREATION_DATE  = 
ORIGINATOR     = 

OBJECT_NAME    = UNKNOWN
OBJECT_ID      = 
CENTER_NAME    = EARTH
REF_FRAME      = TEME
TIME_SYSTEM    = UTC
MEAN_ELEMENT_THEORY = SGP/SGP4

EPOCH          = 2026-01-22T05:21:15.978240
MEAN_MOTION    = 12.94747906
ECCENTRICITY   = .00270058
INCLINATION    = 90.2455
RA_OF_ASC_NODE = 3.7416
ARG_OF_PERICENTER = 293.1241
MEAN_ANOMALY   = 66.7032

EPHEMERIS_TYPE = 0
CLASSIFICATION_TYPE = U
NORAD_CAT_ID   = 270314
ELEMENT_SET_NO = 999
REV_AT_EPOCH   = 27373
BSTAR          = .14205154E-2
MEAN_MOTION_DOT = .404E-5
MEAN_MOTION_DDOT = 0

CCSDS_OMM_VERS = 2.0
CREATION_DATE  = 
ORIGINATOR     = 

OBJECT_NAME    = UNKNOWN
OBJECT_ID      = 
CENTER_NAME    = EARTH
REF_FRAME      = TEME
TIME_SYSTEM    = UTC
MEAN_ELEMENT_THEORY = SGP/SGP4

EPOCH          = 2026-01-28T15:29:40.781760
MEAN_MOTION    = 14.20936058
ECCENTRICITY   = .00042389
INCLINATION    = 81.2100
RA_OF_ASC_NODE = 350.2482
ARG_OF_PERICENTER = 139.6258
MEAN_ANOMALY   = 220.5234

EPHEMERIS_TYPE = 0
CLASSIFICATION_TYPE = U
NORAD_CAT_ID   = 270316
ELEMENT_SET_NO = 999
REV_AT_EPOCH   = 27076
BSTAR          = .23110191E-2
MEAN_MOTION_DOT = .5015E-4
MEAN_MOTION_DDOT = 0

CCSDS_OMM_VERS = 2.0
CREATION_DATE  = 
ORIGINATOR     = 

OBJECT_NAME    = UNKNOWN
OBJECT_ID      = 
CENTER_NAME    = EARTH
REF_FRAME      = TEME
TIME_SYSTEM    = UTC
MEAN_ELEMENT_THEORY = SGP/SGP4

EPOCH          = 2026-01-14T16:31:24.708288
MEAN_MOTION    = 12.93334058
ECCENTRICITY   = .00225176
INCLINATION    = 90.2446
RA_OF_ASC_NODE = 3.9286
ARG_OF_PERICENTER = 310.3808
MEAN_ANOMALY   = 49.5344

EPHEMERIS_TYPE = 0
CLASSIFICATION_TYPE = U
NORAD_CAT_ID   = 270317
ELEMENT_SET_NO = 999
REV_AT_EPOCH   = 7495
BSTAR          = .41444367E-3
MEAN_MOTION_DOT = .121E-5
MEAN_MOTION_DDOT = 0

CCSDS_OMM_VERS = 2.0
CREATION_DATE  = 
ORIGINATOR     = 

OBJECT_NAME    = UNKNOWN
OBJECT_ID      = 
CENTER_NAME    = EARTH
REF_FRAME      = TEME
TIME_SYSTEM    = UTC
MEAN_ELEMENT_THEORY = SGP/SGP4

EPOCH          = 2026-01-24T03:48:48.680928
MEAN_MOTION    = 12.53018801
ECCENTRICITY   = .05285103
INCLINATION    = 102.9988
RA_OF_ASC_NODE = 176.5850
ARG_OF_PERICENTER = 240.7070
MEAN_ANOMALY   = 114.0195

EPHEMERIS_TYPE = 0
CLASSIFICATION_TYPE = U
NORAD_CAT_ID   = 270319
ELEMENT_SET_NO = 999
REV_AT_EPOCH   = 6764
BSTAR          = .35537528E-1
MEAN_MOTION_DOT = .9376E-4
MEAN_MOTION_DDOT = 0

CCSDS_OMM_VERS = 2.0
CREATION_DATE  = 
ORIGINATOR     = 

OBJECT_NAME    = UNKNOWN
OBJECT_ID      = 
CENTER_NAME    = EARTH
REF_FRAME      = TEME
TIME_SYSTEM    = UTC
MEAN_ELEMENT_THEORY = SGP/SGP4

EPOCH          = 2026-01-17T09:23:58.077024
MEAN_MOTION    = 12.99488222
ECCENTRICITY   = .00272984
INCLINATION    = 90.2391
RA_OF_ASC_NODE = 1.9398
ARG_OF_PERICENTER = 6.9408
MEAN_ANOMALY   = 353.2086

EPHEMERIS_TYPE = 0
CLASSIFICATION_TYPE = U
NORAD_CAT_ID   = 270320
ELEMENT_SET_NO = 999
REV_AT_EPOCH   = 22504
BSTAR          = .23939283E-2
MEAN_MOTION_DOT = .723E-5
MEAN_MOTION_DDOT = 0

CCSDS_OMM_VERS = 2.0
CREATION_DATE  = 
ORIGINATOR     = 

OBJECT_NAME    = UNKNOWN
OBJECT_ID      = 
CENTER_NAME    = EARTH
REF_FRAME      = TEME
TIME_SYSTEM    = UTC
MEAN_ELEMENT_THEORY = SGP/SGP4

EPOCH          = 2026-01-27T16:19:49.010304
MEAN_MOTION    = 12.92666852
ECCENTRICITY   = .00288641
INCLINATION    = 90.2460
RA_OF_ASC_NODE = 3.6293
ARG_OF_PERICENTER = 295.3772
MEAN_ANOMALY   = 64.4358

EPHEMERIS_TYPE = 0
CLASSIFICATION_TYPE = U
NORAD_CAT_ID   = 270321
ELEMENT_SET_NO = 999
REV_AT_EPOCH   = 24789
BSTAR          = .12612036E-2
MEAN_MOTION_DOT = .35E-5
MEAN_MOTION_DDOT = 0

CCSDS_OMM_VERS = 2.0
CREATION_DATE  = 
ORIGINATOR     = 

OBJECT_NAME    = UNKNOWN
OBJECT_ID      = 
CENTER_NAME    = EARTH
REF_FRAME      = TEME
TIME_SYSTEM    = UTC
MEAN_ELEMENT_THEORY = SGP/SGP4

EPOCH          = 2026-01-28T21:03:40.272480
MEAN_MOTION    = 12.93138273
ECCENTRICITY   = .00291956
INCLINATION    = 90.2427
RA_OF_ASC_NODE = 3.3943
ARG_OF_PERICENTER = 286.5937
MEAN_ANOMALY   = 73.1976

EPHEMERIS_TYPE = 0
CLASSIFICATION_TYPE = U
NORAD_CAT_ID   = 270322
ELEMENT_SET_NO = 999
REV_AT_EPOCH   = 22410
BSTAR          = .68872514E-3
MEAN_MOTION_DOT = .195E-5
MEAN_MOTION_DDOT = 0

CCSDS_OMM_VERS = 2.0
CREATION_DATE  = 
ORIGINATOR     = 

OBJECT_NAME    = UNKNOWN
OBJECT_ID      = 
CENTER_NAME    = EARTH
REF_FRAME      = TEME
TIME_SYSTEM    = UTC
MEAN_ELEMENT_THEORY = SGP/SGP4

EPOCH          = 2026-01-27T09:05:18.304512
MEAN_MOTION    = 14.44825926
ECCENTRICITY   = .00380928
INCLINATION    = 81.2837
RA_OF_ASC_NODE = 60.6734
ARG_OF_PERICENTER = 302.3399
MEAN_ANOMALY   = 57.4105

EPHEMERIS_TYPE = 0
CLASSIFICATION_TYPE = U
NORAD_CAT_ID   = 270323
ELEMENT_SET_NO = 999
REV_AT_EPOCH   = 28395
BSTAR          = .38906629E-2
MEAN_MOTION_DOT = .13675E-3
MEAN_MOTION_DDOT = 0

